[{"OBJECT_NAME":"GEESAT-3 03","OBJECT_ID":"2024-159C","EPOCH":"2026-03-09T20:03:36.088704","MEAN_MOTION":14.83823976,"ECCENTRICITY":0.00058574,"INCLINATION":49.9919,"RA_OF_ASC_NODE":182.805,"ARG_OF_PERICENTER":109.1955,"MEAN_ANOMALY":250.9617,"EPHEMERIS_TYPE":0,"CLASSIFICATION_TYPE":"U","NORAD_CAT_ID":61013,"ELEMENT_SET_NO":999,"REV_AT_EPOCH":8208,"BSTAR":0.00045710124,"MEAN_MOTION_DOT":3.605e-5,"MEAN_MOTION_DDOT":0},{"OBJECT_NAME":"FENGYUN 1C DEB","OBJECT_ID":"1999-025BXW","EPOCH":"2026-03-07T08:59:43.247904","MEAN_MOTION":14.36304293,"ECCENTRICITY":0.0241698,"INCLINATION":98.3646,"RA_OF_ASC_NODE":113.8642,"ARG_OF_PERICENTER":16.0953,"MEAN_ANOMALY":344.7742,"EPHEMERIS_TYPE":0,"CLASSIFICATION_TYPE":"U","NORAD_CAT_ID":31531,"ELEMENT_SET_NO":999,"REV_AT_EPOCH":65149,"BSTAR":0.0010359083,"MEAN_MOTION_DOT":4.183e-5,"MEAN_MOTION_DDOT":0}]
